KUIPER-00008            
1 63724U 25088A   25202.25001157 -.00036556  00000+0 -23843-2 0  9995
2 63724  51.8865  62.3198 0011376  51.3434  64.7155 15.07280799 13330
KUIPER-00009            
1 63725U 25088B   25202.20889528 -.00251864  00000+0 -10718-1 0  9994
2 63725  51.8726  57.2150 0011511  71.7106 288.5126 15.23538434 13403
KUIPER-00010            
1 63726U 25088C   25202.02458744  .00010614  00000+0  30978-3 0  9993
2 63726  51.8646  57.5231 0009964  56.6642 303.5296 15.35844205 13005
KUIPER-00011            
1 63727U 25088D   25201.85438793  .00010487  00000+0  30996-3 0  9994
2 63727  51.8597  58.5738 0011785  63.3654 296.8538 15.35443119 13110
KUIPER-00012            
1 63728U 25088E   25201.85300390  .00010026  00000+0  29653-3 0  9993
2 63728  51.8583  58.5541 0011658  64.2892 295.9296 15.35478882 13061
KUIPER-00013            
1 63729U 25088F   25201.91668981 -.00758573  00000+0 -35508-1 0  9996
2 63729  51.8753  59.1294 0008484  43.7671 249.9260 15.21719738 13156
KUIPER-00014            
1 63730U 25088G   25201.91668981 -.00015918  00000+0 -70325-3 0  9995
2 63730  51.8732  60.0042 0011458  53.8640 196.2328 15.20539534 12959
KUIPER-00015            
1 63731U 25088H   25201.91668981 -.00005116  00000+0 -40920-3 0  9993
2 63731  51.8868  67.3349 0010912  45.8287 152.6114 14.97728420  5028
